{
    "links": {
        "self": "http://www.neowsapp.com/rest/v1/neo/3831062?api_key=iIulBulltgU6a56xZRHN4H3l9WmuAYTsLGpBGhQ2"
    },
    "id": "3831062",
    "neo_reference_id": "3831062",
    "name": "(2018 TA)",
    "designation": "2018 TA",
    "nasa_jpl_url": "http://ssd.jpl.nasa.gov/sbdb.cgi?sstr=3831062",
    "absolute_magnitude_h": 24.8,
    "estimated_diameter": {
        "kilometers": {
            "estimated_diameter_min": 0.0291443905,
            "estimated_diameter_max": 0.0651688382
        },
        "meters": {
            "estimated_diameter_min": 29.1443904535,
            "estimated_diameter_max": 65.1688382168
        },
        "miles": {
            "estimated_diameter_min": 0.018109479,
            "estimated_diameter_max": 0.0404940262
        },
        "feet": {
            "estimated_diameter_min": 95.6180819754,
            "estimated_diameter_max": 213.8085311752
        }
    },
    "is_potentially_hazardous_asteroid": false,
    "close_approach_data": [
        {
            "close_approach_date": "1921-01-08",
            "close_approach_date_full": "1921-Jan-08 10:29",
            "epoch_date_close_approach": -1545658260000,
            "relative_velocity": {
                "kilometers_per_second": "7.6484403222",
                "kilometers_per_hour": "27534.3851597917",
                "miles_per_hour": "17108.7961566495"
            },
            "miss_distance": {
                "astronomical": "0.4973165511",
                "lunar": "193.4561383779",
                "kilometers": "74397496.760306157",
                "miles": "46228460.8446406866"
            },
            "orbiting_body": "Earth"
        },
        {
            "close_approach_date": "2018-09-12",
            "close_approach_date_full": "2018-Sep-12 07:33",
            "epoch_date_close_approach": 1536737580000,
            "relative_velocity": {
                "kilometers_per_second": "5.0280777235",
                "kilometers_per_hour": "18101.0798046965",
                "miles_per_hour": "11247.3070597571"
            },
            "miss_distance": {
                "astronomical": "0.0819712372",
                "lunar": "31.8868112708",
                "kilometers": "12262722.486384764",
                "miles": "7619702.4227431832"
            },
            "orbiting_body": "Earth"
        },
        {
            "close_approach_date": "2021-07-14",
            "close_approach_date_full": "2021-Jul-14 03:31",
            "epoch_date_close_approach": 1626233460000,
            "relative_velocity": {
                "kilometers_per_second": "11.7216284852",
                "kilometers_per_hour": "42197.8625466419",
                "miles_per_hour": "26220.1107584953"
            },
            "miss_distance": {
                "astronomical": "0.3495900948",
                "lunar": "135.9905468772",
                "kilometers": "52297933.555178076",
                "miles": "32496429.0317504088"
            },
            "orbiting_body": "Earth"
        },
        {
            "close_approach_date": "2090-07-06",
            "close_approach_date_full": "2090-Jul-06 15:38",
            "epoch_date_close_approach": 3803038680000,
            "relative_velocity": {
                "kilometers_per_second": "15.6278269126",
                "kilometers_per_hour": "56260.1768853974",
                "miles_per_hour": "34957.8860208182"
            },
            "miss_distance": {
                "astronomical": "0.4802057301",
                "lunar": "186.8000290089",
                "kilometers": "71837754.384754887",
                "miles": "44637910.6872639606"
            },
            "orbiting_body": "Earth"
        },
        {
            "close_approach_date": "2090-12-07",
            "close_approach_date_full": "2090-Dec-07 16:29",
            "epoch_date_close_approach": 3816347340000,
            "relative_velocity": {
                "kilometers_per_second": "5.3513491496",
                "kilometers_per_hour": "19264.8569383879",
                "miles_per_hour": "11970.4329126333"
            },
            "miss_distance": {
                "astronomical": "0.3877357111",
                "lunar": "150.8291916179",
                "kilometers": "58004436.503495357",
                "miles": "36042285.5402836466"
            },
            "orbiting_body": "Earth"
        }
    ],
    "orbital_data": {
        "orbit_id": "6",
        "orbit_determination_date": "2019-01-19 07:17:34",
        "first_observation_date": "2018-10-01",
        "last_observation_date": "2018-10-12",
        "data_arc_in_days": 11,
        "observations_used": 15,
        "orbit_uncertainty": "8",
        "minimum_orbit_intersection": ".0510987",
        "jupiter_tisserand_invariant": "5.005",
        "epoch_osculation": "2458401.5",
        "eccentricity": ".1880034664195211",
        "semi_major_axis": "1.290687845118202",
        "inclination": "5.418727508746246",
        "ascending_node_longitude": "358.7233667083643",
        "orbital_period": "535.5872836826042",
        "perihelion_distance": "1.048034056170438",
        "perihelion_argument": "331.5503578222346",
        "aphelion_distance": "1.533341634065966",
        "perihelion_time": "2458358.372312756694",
        "mean_anomaly": "28.9886781867492",
        "mean_motion": ".6721593491255118",
        "equinox": "J2000",
        "orbit_class": {
            "orbit_class_type": "AMO",
            "orbit_class_description": "Near-Earth asteroid orbits similar to that of 1221 Amor",
            "orbit_class_range": "1.017 AU < q (perihelion) < 1.3 AU"
        }
    },
    "is_sentry_object": false
}